{"type": "FeatureCollection", "features": [ {"type": "Feature", "properties": {"norad_id": 39155, "name": "COSMOS 2485 (747)", "group": "glo-ops", "lat": 63.52854560531009, "lon": -167.33917026819694, "alt_km": 19162.503026159517, "timestamp": "2025-12-10T20:49:52.814623+00:00", "meta": {"OBJECT_NAME": "COSMOS 2485 (747)", "OBJECT_ID": "2013-019A", "EPOCH": "2025-12-09T07:54:23.495904", "MEAN_MOTION": 2.1310286, "ECCENTRICITY": 0.00245626, "INCLINATION": 65.3117, "RA_OF_ASC_NODE": 79.982, "ARG_OF_PERICENTER": 229.1601, "MEAN_ANOMALY": 130.6433, "EPHEMERIS_TYPE": 0, "CLASSIFICATION_TYPE": "U", "NORAD_CAT_ID": 39155, "ELEMENT_SET_NO": 999, "REV_AT_EPOCH": 9823, "BSTAR": 0, "MEAN_MOTION_DOT": -1.3e-07, "MEAN_MOTION_DDOT": 0}, "tle": {"line1": "1 39155U 13019A   25343.32943861 -.00000013  00000+0  00000+0 0  9993", "line2": "2 39155  65.3117  79.9820 0024562 229.1601 130.6433  2.13102860 98238"}}, "geometry": {"type": "Point", "coordinates": [-167.33917026819694, 63.52854560531009]}}, {"type": "Feature", "properties": {"norad_id": 39620, "name": "COSMOS 2492 (754)", "group": "glo-ops", "lat": 42.51153833835379, "lon": 115.50900858668751, "alt_km": 19161.21182342567, "timestamp": "2025-12-10T20:49:52.814634+00:00", "meta": {"OBJECT_NAME": "COSMOS 2492 (754)", "OBJECT_ID": "2014-012A", "EPOCH": "2025-12-10T05:26:14.562816", "MEAN_MOTION": 2.13102977, "ECCENTRICITY": 0.00142093, "INCLINATION": 65.4091, "RA_OF_ASC_NODE": 320.3564, "ARG_OF_PERICENTER": 311.2257, "MEAN_ANOMALY": 48.6498, "EPHEMERIS_TYPE": 0, "CLASSIFICATION_TYPE": "U", "NORAD_CAT_ID": 39620, "ELEMENT_SET_NO": 999, "REV_AT_EPOCH": 9121, "BSTAR": 0, "MEAN_MOTION_DOT": -5e-07, "MEAN_MOTION_DDOT": 0}, "tle": {"line1": "1 39620U 14012A   25344.22655744 -.00000050  00000+0  00000+0 0  9995", "line2": "2 39620  65.4091 320.3564 0014209 311.2257  48.6498  2.13102977 91211"}}, "geometry": {"type": "Point", "coordinates": [115.50900858668751, 42.51153833835379]}}, {"type": "Feature", "properties": {"norad_id": 40001, "name": "COSMOS 2500 (755)", "group": "glo-ops", "lat": -0.05218297389453829, "lon": -39.93822271068291, "alt_km": 19146.564001266797, "timestamp": "2025-12-10T20:49:52.814645+00:00", "meta": {"OBJECT_NAME": "COSMOS 2500 (755)", "OBJECT_ID": "2014-032A", "EPOCH": "2025-12-09T11:02:48.490944", "MEAN_MOTION": 2.13105796, "ECCENTRICITY": 0.000831, "INCLINATION": 65.3451, "RA_OF_ASC_NODE": 320.1442, "ARG_OF_PERICENTER": 219.1348, "MEAN_ANOMALY": 140.802, "EPHEMERIS_TYPE": 0, "CLASSIFICATION_TYPE": "U", "NORAD_CAT_ID": 40001, "ELEMENT_SET_NO": 999, "REV_AT_EPOCH": 8941, "BSTAR": 0, "MEAN_MOTION_DOT": -4.9e-07, "MEAN_MOTION_DDOT": 0}, "tle": {"line1": "1 40001U 14032A   25343.46028346 -.00000049  00000+0  00000+0 0  9997", "line2": "2 40001  65.3451 320.1442 0008310 219.1348 140.8020  2.13105796 89418"}}, "geometry": {"type": "Point", "coordinates": [-39.93822271068291, -0.05218297389453829]}}, {"type": "Feature", "properties": {"norad_id": 40315, "name": "COSMOS 2501 (702K)", "group": "glo-ops", "lat": 17.394510019537975, "lon": 7.946425733238541, "alt_km": 19091.16600978083, "timestamp": "2025-12-10T20:49:52.814656+00:00", "meta": {"OBJECT_NAME": "COSMOS 2501 (702K)", "OBJECT_ID": "2014-075A", "EPOCH": "2025-12-07T20:13:51.362112", "MEAN_MOTION": 2.13101338, "ECCENTRICITY": 0.00201356, "INCLINATION": 63.6139, "RA_OF_ASC_NODE": 196.9947, "ARG_OF_PERICENTER": 204.4913, "MEAN_ANOMALY": 155.4908, "EPHEMERIS_TYPE": 0, "CLASSIFICATION_TYPE": "U", "NORAD_CAT_ID": 40315, "ELEMENT_SET_NO": 999, "REV_AT_EPOCH": 8577, "BSTAR": 0, "MEAN_MOTION_DOT": 5.4e-07, "MEAN_MOTION_DDOT": 0}, "tle": {"line1": "1 40315U 14075A   25341.84295558  .00000054  00000+0  00000+0 0  9998", "line2": "2 40315  63.6139 196.9947 0020135 204.4913 155.4908  2.13101338 85773"}}, "geometry": {"type": "Point", "coordinates": [7.946425733238541, 17.394510019537975]}}, {"type": "Feature", "properties": {"norad_id": 41330, "name": "COSMOS 2514 (751)", "group": "glo-ops", "lat": 6.485776417556521, "lon": 136.43599164006494, "alt_km": 19108.43939734972, "timestamp": "2025-12-10T20:49:52.814667+00:00", "meta": {"OBJECT_NAME": "COSMOS 2514 (751)", "OBJECT_ID": "2016-008A", "EPOCH": "2025-12-10T04:09:27.217152", "MEAN_MOTION": 2.13102572, "ECCENTRICITY": 0.0012197, "INCLINATION": 65.1353, "RA_OF_ASC_NODE": 319.4918, "ARG_OF_PERICENTER": 220.0504, "MEAN_ANOMALY": 139.8574, "EPHEMERIS_TYPE": 0, "CLASSIFICATION_TYPE": "U", "NORAD_CAT_ID": 41330, "ELEMENT_SET_NO": 999, "REV_AT_EPOCH": 7659, "BSTAR": 0, "MEAN_MOTION_DOT": -5e-07, "MEAN_MOTION_DDOT": 0}, "tle": {"line1": "1 41330U 16008A   25344.17323168 -.00000050  00000+0  00000+0 0  9999", "line2": "2 41330  65.1353 319.4918 0012197 220.0504 139.8574  2.13102572 76591"}}, "geometry": {"type": "Point", "coordinates": [136.43599164006494, 6.485776417556521]}}, {"type": "Feature", "properties": {"norad_id": 42939, "name": "COSMOS 2522 (752)", "group": "glo-ops", "lat": -53.24943687090506, "lon": 157.6523286531147, "alt_km": 19130.3807536931, "timestamp": "2025-12-10T20:49:52.814678+00:00", "meta": {"OBJECT_NAME": "COSMOS 2522 (752)", "OBJECT_ID": "2017-055A", "EPOCH": "2025-12-10T00:16:43.890240", "MEAN_MOTION": 2.13101818, "ECCENTRICITY": 0.0006628, "INCLINATION": 64.076, "RA_OF_ASC_NODE": 198.322, "ARG_OF_PERICENTER": 225.9279, "MEAN_ANOMALY": 134.088, "EPHEMERIS_TYPE": 0, "CLASSIFICATION_TYPE": "U", "NORAD_CAT_ID": 42939, "ELEMENT_SET_NO": 999, "REV_AT_EPOCH": 6394, "BSTAR": 0, "MEAN_MOTION_DOT": 4.5e-07, "MEAN_MOTION_DDOT": 0}, "tle": {"line1": "1 42939U 17055A   25344.01161910  .00000045  00000+0  00000+0 0  9999", "line2": "2 42939  64.0760 198.3220 0006628 225.9279 134.0880  2.13101818 63946"}}, "geometry": {"type": "Point", "coordinates": [157.6523286531147, -53.24943687090506]}}, {"type": "Feature", "properties": {"norad_id": 43508, "name": "COSMOS 2527 (756)", "group": "glo-ops", "lat": -29.63587844433352, "lon": 65.16542578416494, "alt_km": 19138.716241860817, "timestamp": "2025-12-10T20:49:52.814689+00:00", "meta": {"OBJECT_NAME": "COSMOS 2527 (756)", "OBJECT_ID": "2018-053A", "EPOCH": "2025-12-10T10:35:59.703936", "MEAN_MOTION": 2.13102031, "ECCENTRICITY": 0.0008586, "INCLINATION": 65.4714, "RA_OF_ASC_NODE": 80.2084, "ARG_OF_PERICENTER": 224.5475, "MEAN_ANOMALY": 135.4001, "EPHEMERIS_TYPE": 0, "CLASSIFICATION_TYPE": "U", "NORAD_CAT_ID": 43508, "ELEMENT_SET_NO": 999, "REV_AT_EPOCH": 5825, "BSTAR": 0, "MEAN_MOTION_DOT": -1.9e-07, "MEAN_MOTION_DDOT": 0}, "tle": {"line1": "1 43508U 18053A   25344.44166324 -.00000019  00000+0  00000+0 0  9994", "line2": "2 43508  65.4714  80.2084 0008586 224.5475 135.4001  2.13102031 58254"}}, "geometry": {"type": "Point", "coordinates": [65.16542578416494, -29.63587844433352]}}, {"type": "Feature", "properties": {"norad_id": 43687, "name": "COSMOS 2529 (757)", "group": "glo-ops", "lat": -59.10241687932392, "lon": 72.56607530022539, "alt_km": 19117.64226938123, "timestamp": "2025-12-10T20:49:52.814700+00:00", "meta": {"OBJECT_NAME": "COSMOS 2529 (757)", "OBJECT_ID": "2018-086A", "EPOCH": "2025-12-10T01:40:33.584160", "MEAN_MOTION": 2.13101882, "ECCENTRICITY": 0.00072869, "INCLINATION": 64.2919, "RA_OF_ASC_NODE": 198.9786, "ARG_OF_PERICENTER": 254.1993, "MEAN_ANOMALY": 105.7913, "EPHEMERIS_TYPE": 0, "CLASSIFICATION_TYPE": "U", "NORAD_CAT_ID": 43687, "ELEMENT_SET_NO": 999, "REV_AT_EPOCH": 5525, "BSTAR": 0, "MEAN_MOTION_DOT": 4.4e-07, "MEAN_MOTION_DDOT": 0}, "tle": {"line1": "1 43687U 18086A   25344.06983315  .00000044  00000+0  00000+0 0  9990", "line2": "2 43687  64.2919 198.9786 0007286 254.1993 105.7913  2.13101882 55254"}}, "geometry": {"type": "Point", "coordinates": [72.56607530022539, -59.10241687932392]}}, {"type": "Feature", "properties": {"norad_id": 44299, "name": "COSMOS 2534 (758)", "group": "glo-ops", "lat": 23.938290066881706, "lon": -148.7326586763618, "alt_km": 19132.505481235596, "timestamp": "2025-12-10T20:49:52.814711+00:00", "meta": {"OBJECT_NAME": "COSMOS 2534 (758)", "OBJECT_ID": "2019-030A", "EPOCH": "2025-12-10T14:34:24.563136", "MEAN_MOTION": 2.13102261, "ECCENTRICITY": 0.00089995, "INCLINATION": 64.3653, "RA_OF_ASC_NODE": 198.9649, "ARG_OF_PERICENTER": 283.4628, "MEAN_ANOMALY": 263.2195, "EPHEMERIS_TYPE": 0, "CLASSIFICATION_TYPE": "U", "NORAD_CAT_ID": 44299, "ELEMENT_SET_NO": 999, "REV_AT_EPOCH": 5090, "BSTAR": 0, "MEAN_MOTION_DOT": 4.7e-07, "MEAN_MOTION_DDOT": 0}, "tle": {"line1": "1 44299U 19030A   25344.60722874  .00000047  00000+0  00000+0 0  9994", "line2": "2 44299  64.3653 198.9649 0008999 283.4628 263.2195  2.13102261 50901"}}, "geometry": {"type": "Point", "coordinates": [-148.7326586763618, 23.938290066881706]}}, {"type": "Feature", "properties": {"norad_id": 44850, "name": "COSMOS 2544 (759)", "group": "glo-ops", "lat": 8.701952590658479, "lon": 84.03026480004836, "alt_km": 19146.982291493205, "timestamp": "2025-12-10T20:49:52.814722+00:00", "meta": {"OBJECT_NAME": "COSMOS 2544 (759)", "OBJECT_ID": "2019-088A", "EPOCH": "2025-12-09T10:44:40.843680", "MEAN_MOTION": 2.13101756, "ECCENTRICITY": 0.0013649, "INCLINATION": 65.4583, "RA_OF_ASC_NODE": 80.0686, "ARG_OF_PERICENTER": 249.1242, "MEAN_ANOMALY": 110.7462, "EPHEMERIS_TYPE": 0, "CLASSIFICATION_TYPE": "U", "NORAD_CAT_ID": 44850, "ELEMENT_SET_NO": 999, "REV_AT_EPOCH": 4667, "BSTAR": 0, "MEAN_MOTION_DOT": -1.3e-07, "MEAN_MOTION_DDOT": 0}, "tle": {"line1": "1 44850U 19088A   25343.44769495 -.00000013  00000+0  00000+0 0  9995", "line2": "2 44850  65.4583  80.0686 0013649 249.1242 110.7462  2.13101756 46679"}}, "geometry": {"type": "Point", "coordinates": [84.03026480004836, 8.701952590658479]}}]}